{
"type": "FeatureCollection",
"name": "vuurtorens",
"crs": { "type": "name", "properties": { "name": "urn:ogc:def:crs:EPSG::3857" } },
"features": [
{ "type": "Feature", "properties": { "naam": "Scheveningen", "alternatieve_naam": null, "adres": "Zeekant 12, Den Haag", "aanvang_bouw": "1875", "jaar_van_ingebruikstelling": 1875, "lichtkarakter": "Fl(2)W10s", "url_foto": "https://www.vuurtorens.org/wp-content/uploads/2023/06/Scheveningen.jpg" }, "geometry": { "type": "Point", "coordinates": [ 475142.52309568162309, 6818982.010352444835007 ] } },
{ "type": "Feature", "properties": { "naam": "Eierland", "alternatieve_naam": null, "adres": "Vuurtorenweg 184, De Cocksdorp", "aanvang_bouw": "1863", "jaar_van_ingebruikstelling": 1864, "lichtkarakter": "Fl(2)W10s", "url_foto": "https://www.vuurtorens.org/wp-content/uploads/2024/08/Texel-3.jpg" }, "geometry": { "type": "Point", "coordinates": [ 540508.670746470219456, 7016754.751536823809147 ] } },
{ "type": "Feature", "properties": { "naam": "Wester-Schouwen", "alternatieve_naam": "Westerlichttoren", "adres": "Vuurtoren 1, Burgh-Haamstede", "aanvang_bouw": "1837", "jaar_van_ingebruikstelling": 1840, "lichtkarakter": "Fl(2+1)W15s", "url_foto": "https://www.vuurtorens.org/wp-content/uploads/2024/08/Schouwen-Haamstede-3.jpg" }, "geometry": { "type": "Point", "coordinates": [ 410941.914044019882567, 6747659.054699392989278 ] } },
{ "type": "Feature", "properties": { "naam": "Westhoofd", "alternatieve_naam": null, "adres": "Groenedijk 62, Ouddorp", "aanvang_bouw": "1947", "jaar_van_ingebruikstelling": 1948, "lichtkarakter": "Fl(3)W15s", "url_foto": "https://www.vuurtorens.org/wp-content/uploads/2019/05/Westhoofd-2.jpg" }, "geometry": { "type": "Point", "coordinates": [ 430160.166676933586132, 6766418.91624557133764 ] } },
{ "type": "Feature", "properties": { "naam": "Ameland", "alternatieve_naam": null, "adres": " Oranjeweg 57, Hollum", "aanvang_bouw": "1880", "jaar_van_ingebruikstelling": 1881, "lichtkarakter": "Fl(3)W15s", "url_foto": "https://www.vuurtorens.org/wp-content/uploads/2023/06/Ameland.jpg" }, "geometry": { "type": "Point", "coordinates": [ 626252.332958924700506, 7066533.028856796212494 ] } },
{ "type": "Feature", "properties": { "naam": "Kijkduin", "alternatieve_naam": "Lange Jaap", "adres": "Zeeweg 5, Huisduinen", "aanvang_bouw": "1876", "jaar_van_ingebruikstelling": 1878, "lichtkarakter": "Fl(4)W20s", "url_foto": "https://www.vuurtorens.org/wp-content/uploads/2017/11/Kijkduin-groot.jpg" }, "geometry": { "type": "Point", "coordinates": [ 526160.927826760220341, 6974770.655184422619641 ] } },
{ "type": "Feature", "properties": { "naam": "Schiermonnikoog Noordertoren", "alternatieve_naam": null, "adres": "Vuurtorenpad 28, Schiermonnikoog", "aanvang_bouw": "1853", "jaar_van_ingebruikstelling": 1854, "lichtkarakter": "Fl(4)W20s", "url_foto": "https://www.vuurtorens.org/wp-content/uploads/2023/06/Schiermonnikoog-Noordertoren.jpg" }, "geometry": { "type": "Point", "coordinates": [ 684231.392653130460531, 7073561.449393673799932 ] } },
{ "type": "Feature", "properties": { "naam": "Westkapelle Hoge Licht", "alternatieve_naam": "Toren Sint-Willibrorduskerk", "adres": "Zuidstraat 1, Westkapelle", "aanvang_bouw": "onbekend", "jaar_van_ingebruikstelling": 1818, "lichtkarakter": "FlW3s", "url_foto": "https://www.vuurtorens.org/wp-content/uploads/2024/08/Westkapelle-hoog-3.jpg" }, "geometry": { "type": "Point", "coordinates": [ 383748.904627125884872, 6715441.242718050256371 ] } },
{ "type": "Feature", "properties": { "naam": "IJmuiden Hoge Licht", "alternatieve_naam": "Binnentoren", "adres": "Vuurtorenstraat 16, Ijmuiden", "aanvang_bouw": "1877", "jaar_van_ingebruikstelling": 1878, "lichtkarakter": "FlW5s", "url_foto": "https://www.vuurtorens.org/wp-content/uploads/2017/11/IJmuiden-Hoge-Licht-groot.jpg" }, "geometry": { "type": "Point", "coordinates": [ 510167.993806985730771, 6883887.896572241559625 ] } },
{ "type": "Feature", "properties": { "naam": "Urk", "alternatieve_naam": null, "adres": "Wijk 3 80 a, Urk", "aanvang_bouw": "1844", "jaar_van_ingebruikstelling": 1845, "lichtkarakter": "FlW5s", "url_foto": "https://www.vuurtorens.org/wp-content/uploads/2024/08/Urk-4.jpg" }, "geometry": { "type": "Point", "coordinates": [ 622498.425375974737108, 6920557.0182043928653 ] } },
{ "type": "Feature", "properties": { "naam": "Brandaris", "alternatieve_naam": null, "adres": "Brandarisstraat 2, West-Terschelling", "aanvang_bouw": "1593", "jaar_van_ingebruikstelling": 1594, "lichtkarakter": "FlW5s", "url_foto": "https://www.vuurtorens.org/wp-content/uploads/2024/08/Terschelling-2.jpg" }, "geometry": { "type": "Point", "coordinates": [ 580450.657846121001057, 7049934.857965024188161 ] } },
{ "type": "Feature", "properties": { "naam": "IJmuiden Lage Licht", "alternatieve_naam": "Buitentoren", "adres": "Seinpostweg 34, Ijmuiden", "aanvang_bouw": "1877", "jaar_van_ingebruikstelling": 1878, "lichtkarakter": "FWR", "url_foto": "https://www.vuurtorens.org/wp-content/uploads/2017/11/IJmuiden-Lage-Licht-groot.jpg" }, "geometry": { "type": "Point", "coordinates": [ 509237.239103698404506, 6884060.449106906540692 ] } },
{ "type": "Feature", "properties": { "naam": "Licht van Troost", "alternatieve_naam": "Schilbolsnol", "adres": "Molwerk, Den Hoorn", "aanvang_bouw": "1977", "jaar_van_ingebruikstelling": 1977, "lichtkarakter": "FWRG", "url_foto": "https://www.vuurtorens.org/wp-content/uploads/2017/11/Schilbolsnol-groot.jpg" }, "geometry": { "type": "Point", "coordinates": [ 530091.184135999297723, 6984544.371296157129109 ] } },
{ "type": "Feature", "properties": { "naam": "Hoek van Holland Lage Licht", "alternatieve_naam": null, "adres": "Berghaven, Hoek van Holland", "aanvang_bouw": "1973", "jaar_van_ingebruikstelling": 1974, "lichtkarakter": "IsoR6s", "url_foto": "https://www.vuurtorens.org/wp-content/uploads/2017/11/Hoek-van-Holland-Lage-Licht-groot.jpg" }, "geometry": { "type": "Point", "coordinates": [ 459248.598777194099966, 6795762.036027139984071 ] } },
{ "type": "Feature", "properties": { "naam": "Hoek van Holland Hoge Licht", "alternatieve_naam": null, "adres": "Delflandsedijkpad, Hoek van Holland", "aanvang_bouw": "1973", "jaar_van_ingebruikstelling": 1974, "lichtkarakter": "IsoR6s", "url_foto": "https://www.vuurtorens.org/wp-content/uploads/2017/11/Hoek-van-Holland-Hoge-Licht-groot.jpg" }, "geometry": { "type": "Point", "coordinates": [ 459950.525358644255903, 6795546.181884546764195 ] } },
{ "type": "Feature", "properties": { "naam": "Maasmond Lage Licht", "alternatieve_naam": null, "adres": "Maasmond, Hoek van Holland", "aanvang_bouw": "1970", "jaar_van_ingebruikstelling": 1971, "lichtkarakter": "IsoW4s", "url_foto": "https://www.vuurtorens.org/wp-content/uploads/2017/11/Maasmond-Lage-Licht-groot.jpg" }, "geometry": { "type": "Point", "coordinates": [ 454353.677613904175814, 6796761.097032849676907 ] } },
{ "type": "Feature", "properties": { "naam": "Maasmond Hoge Licht", "alternatieve_naam": null, "adres": "Maasmond, Hoek van Holland", "aanvang_bouw": "1970", "jaar_van_ingebruikstelling": 1971, "lichtkarakter": "IsoW4s", "url_foto": "https://www.vuurtorens.org/wp-content/uploads/2017/11/Maasmond-Hoge-Licht-groot.jpg" }, "geometry": { "type": "Point", "coordinates": [ 456029.636660574236885, 6796068.277878575026989 ] } },
{ "type": "Feature", "properties": { "naam": "Stavoren", "alternatieve_naam": null, "adres": "Kooijweg, Stavoren", "aanvang_bouw": "1884", "jaar_van_ingebruikstelling": 1884, "lichtkarakter": "IsoW4s", "url_foto": "https://www.vuurtorens.org/wp-content/uploads/2023/06/Stavoren.jpg" }, "geometry": { "type": "Point", "coordinates": [ 596406.431627308367752, 6962312.835327133536339 ] } },
{ "type": "Feature", "properties": { "naam": "Vuurduin", "alternatieve_naam": null, "adres": "Vuurboetsduin 3, Oost-Vlieland", "aanvang_bouw": "1877", "jaar_van_ingebruikstelling": 1909, "lichtkarakter": "IsoW4s", "url_foto": "https://www.vuurtorens.org/wp-content/uploads/2023/04/Vlieland-3.jpg" }, "geometry": { "type": "Point", "coordinates": [ 563078.663522104965523, 7037907.434924738481641 ] } },
{ "type": "Feature", "properties": { "naam": "Egmond aan Zee", "alternatieve_naam": "J.C.J. van Speijkmonument", "adres": "Vuurtorenplein 401, Egmond aan Zee", "aanvang_bouw": "1833", "jaar_van_ingebruikstelling": 1834, "lichtkarakter": "IsoWR10s", "url_foto": "https://www.vuurtorens.org/wp-content/uploads/2017/11/Egmond-aan-Zee-groot.jpg" }, "geometry": { "type": "Point", "coordinates": [ 514481.725025173160248, 6912836.794285326264799 ] } },
{ "type": "Feature", "properties": { "naam": "Hellevoetsluis", "alternatieve_naam": null, "adres": "Westkade 1, Hellevoetsluis", "aanvang_bouw": "1822", "jaar_van_ingebruikstelling": 1822, "lichtkarakter": "IsoWRG10s", "url_foto": "https://www.vuurtorens.org/wp-content/uploads/2023/06/Hellevoetsluis-2.jpg" }, "geometry": { "type": "Point", "coordinates": [ 459505.198289874126203, 6767594.261785222217441 ] } },
{ "type": "Feature", "properties": { "naam": "De Ven", "alternatieve_naam": "Geldersche Hoek", "adres": "Oosterdijk 5-E, Enkhuizen", "aanvang_bouw": "1700", "jaar_van_ingebruikstelling": 1700, "lichtkarakter": "LFlW10s", "url_foto": "https://www.vuurtorens.org/wp-content/uploads/2024/08/Enkhuizen-De-Ven-2.jpg" }, "geometry": { "type": "Point", "coordinates": [ 588017.340837698546238, 6935421.864744797348976 ] } },
{ "type": "Feature", "properties": { "naam": "Noordwijk aan Zee", "alternatieve_naam": null, "adres": "Koningin Wilhelmina Boulevard 34, Noordwijk", "aanvang_bouw": "1921", "jaar_van_ingebruikstelling": 1922, "lichtkarakter": "Oc(3)W20s", "url_foto": "https://www.vuurtorens.org/wp-content/uploads/2019/05/Noordwijk-aan-Zee-2.jpg" }, "geometry": { "type": "Point", "coordinates": [ 493587.579289728426374, 6845213.003260527737439 ] } },
{ "type": "Feature", "properties": { "naam": "Europoort-Calandkanaal Lage Licht", "alternatieve_naam": null, "adres": "Noordzeeweg, Rotterdam", "aanvang_bouw": "1970", "jaar_van_ingebruikstelling": 1971, "lichtkarakter": "OcG6s", "url_foto": "https://www.vuurtorens.org/wp-content/uploads/2017/11/Europoort-Calandkanaal-Lage-Licht-groot.jpg" }, "geometry": { "type": "Point", "coordinates": [ 461434.771339115861338, 6792810.882818223908544 ] } },
{ "type": "Feature", "properties": { "naam": "Europoort-Calandkanaal Hoge Licht", "alternatieve_naam": null, "adres": "Noordzeeweg, Rotterdam", "aanvang_bouw": "1970", "jaar_van_ingebruikstelling": 1971, "lichtkarakter": "OcG6s", "url_foto": "https://www.vuurtorens.org/wp-content/uploads/2017/11/Europoort-Calandkanaal-Hoge-Licht-groot.jpg" }, "geometry": { "type": "Point", "coordinates": [ 462241.833499427477363, 6792419.48455679602921 ] } },
{ "type": "Feature", "properties": { "naam": "Nieuwe Sluis", "alternatieve_naam": null, "adres": "Panoramaweg 1, Breskens", "aanvang_bouw": "1867", "jaar_van_ingebruikstelling": 1867, "lichtkarakter": "OcW10s (priv)", "url_foto": "https://www.vuurtorens.org/wp-content/uploads/2023/04/Breskens-hoog-2.jpg" }, "geometry": { "type": "Point", "coordinates": [ 391986.594089067832101, 6693590.641553646884859 ] } },
{ "type": "Feature", "properties": { "naam": "Hoek van ’t IJ", "alternatieve_naam": "IJdoorn", "adres": " Vuurtoreneiland, Amsterdam", "aanvang_bouw": "1893", "jaar_van_ingebruikstelling": 1893, "lichtkarakter": "OcW5s (priv)", "url_foto": "https://www.vuurtorens.org/wp-content/uploads/2023/06/Hoek-van-t-IJ.jpg" }, "geometry": { "type": "Point", "coordinates": [ 558168.423619312234223, 6867633.871121444739401 ] } },
{ "type": "Feature", "properties": { "naam": "Paard van Marken", "alternatieve_naam": null, "adres": "Oosterpad 1, Marken", "aanvang_bouw": "1839", "jaar_van_ingebruikstelling": 1839, "lichtkarakter": "OcW8s", "url_foto": "https://www.vuurtorens.org/wp-content/uploads/2024/08/Marken-2.jpg" }, "geometry": { "type": "Point", "coordinates": [ 572086.487211419967934, 6883689.996551739983261 ] } },
{ "type": "Feature", "properties": { "naam": "Noorderhoofd", "alternatieve_naam": "t Iezderen torentje", "adres": "Zeedijk 5, Westkapelle", "aanvang_bouw": "1875", "jaar_van_ingebruikstelling": 1876, "lichtkarakter": "OcWRG10s", "url_foto": "https://www.vuurtorens.org/wp-content/uploads/2017/11/Noorderhoofd-groot.jpg" }, "geometry": { "type": "Point", "coordinates": [ 382598.597587264142931, 6717394.875501775182784 ] } }
]
}
